{
"type": "FeatureCollection",
"name": "uyo_boundary",
"crs": { "type": "name", "properties": { "name": "urn:ogc:def:crs:OGC:1.3:CRS84" } },
"features": [
{ "type": "Feature", "properties": { "shapeName": "Uyo", "shapeISO": "", "shapeID": "59680162B78634023582239", "shapeGroup": "NGA", "shapeType": "ADM2" }, "geometry": { "type": "Polygon", "coordinates": [ [ [ 7.828747179738627, 4.986083181993308 ], [ 7.839816852965441, 4.990908314567093 ], [ 7.84055671442087, 4.990963669637665 ], [ 7.841664404888434, 4.991047721175448 ], [ 7.841918038886433, 4.991279165301307 ], [ 7.842125874909243, 4.991472597782206 ], [ 7.854274783154779, 4.993268499841463 ], [ 7.856256042682276, 5.001437434989668 ], [ 7.858868425737285, 5.002589062735126 ], [ 7.858908245019563, 5.0026065347638 ], [ 7.862070859382698, 5.010493961427244 ], [ 7.868119944080206, 5.011775394618837 ], [ 7.872987756679663, 5.009426662210728 ], [ 7.876836551965368, 5.008949895621242 ], [ 7.87883076802558, 5.008775399265289 ], [ 7.881076190813587, 5.005132083778676 ], [ 7.882284966877762, 4.99713643899554 ], [ 7.892263284922706, 4.991189539765514 ], [ 7.897853149703167, 5.008300757773782 ], [ 7.901721630249085, 5.009081544677599 ], [ 7.908671920173049, 5.00129512357114 ], [ 7.911843689634622, 4.999406003184561 ], [ 7.913495443859688, 5.000462373839525 ], [ 7.927119385950959, 5.001279120135337 ], [ 7.928791085340379, 5.002493299326375 ], [ 7.934032195729287, 5.001345688852496 ], [ 7.937571891329753, 4.998712359687715 ], [ 7.940389631876087, 4.996692241353912 ], [ 7.942861254843081, 4.994319980882437 ], [ 7.946088085296935, 4.988771620713749 ], [ 7.949217436435617, 4.985909136197733 ], [ 7.955747186283645, 4.981159975652417 ], [ 7.959219111672724, 4.981260985706001 ], [ 7.964608579622279, 4.977116570673275 ], [ 7.968069878622032, 4.963803093438059 ], [ 7.971395175846737, 4.962879581427615 ], [ 7.981572215285553, 4.952876982586702 ], [ 7.983457550425669, 4.952603784736937 ], [ 7.99117289901011, 4.951494848708364 ], [ 7.991865665668001, 4.952819407989352 ], [ 7.993827581677579, 4.959552928924552 ], [ 7.999092619428893, 4.963395564753569 ], [ 8.001016203634947, 4.965495103116552 ], [ 8.004599605387511, 4.967405256847201 ], [ 8.012183813931927, 4.97057218705686 ], [ 8.013116356035027, 4.976863926828798 ], [ 8.024405646403522, 4.981555190819449 ], [ 8.024478608401125, 4.981981578287275 ], [ 8.026244864309092, 4.992303604627693 ], [ 8.026049904779313, 4.996802746449646 ], [ 8.032077153038244, 5.002622801700966 ], [ 8.031869961829329, 5.02135085595728 ], [ 8.014154149394528, 5.012668915138363 ], [ 8.013387723764481, 5.012988929895243 ], [ 8.008837166801868, 5.012888365905383 ], [ 8.006501474563436, 5.013251722588961 ], [ 8.003730086874043, 5.014490573781018 ], [ 8.000905519574133, 5.032147513896689 ], [ 7.992909388257715, 5.03846298767678 ], [ 7.988328185097714, 5.045500039695128 ], [ 7.98421819701224, 5.051082950018156 ], [ 7.984864320332179, 5.059922933196844 ], [ 7.980620741554048, 5.063571775916785 ], [ 7.974168043820214, 5.067869847315649 ], [ 7.965883775116197, 5.070098112837684 ], [ 7.963061355397258, 5.069129678791683 ], [ 7.941611281735334, 5.073764379022919 ], [ 7.934948180414267, 5.076771995231468 ], [ 7.930011754039242, 5.067964819320991 ], [ 7.930061218550463, 5.065974085435755 ], [ 7.929507933144635, 5.058563472126593 ], [ 7.926454561229093, 5.05654461823957 ], [ 7.924526150361601, 5.054531914816039 ], [ 7.920735101443825, 5.051419306355967 ], [ 7.918645025747367, 5.051823709896325 ], [ 7.918380136733958, 5.051590680265747 ], [ 7.913014520603667, 5.046870413139118 ], [ 7.912240955255925, 5.046070466179117 ], [ 7.907411818900357, 5.04504220113671 ], [ 7.905763848123115, 5.044285531352216 ], [ 7.903525510194186, 5.041963978255069 ], [ 7.897874919591914, 5.040613069737446 ], [ 7.897085543263245, 5.04042434970404 ], [ 7.895504738353054, 5.037364187906974 ], [ 7.895553636291311, 5.037246391108113 ], [ 7.895516923267451, 5.036664995593128 ], [ 7.895175802321489, 5.031262947027415 ], [ 7.891351536943944, 5.03022213464385 ], [ 7.883940685314428, 5.02704368321946 ], [ 7.880082706151995, 5.033124579635682 ], [ 7.881504521716352, 5.03606599944635 ], [ 7.87921877422707, 5.044177574035871 ], [ 7.876966866427779, 5.044950276034456 ], [ 7.867542432737139, 5.03840181399255 ], [ 7.866068076080921, 5.038775762891191 ], [ 7.862931012356398, 5.03619561063897 ], [ 7.859927936824874, 5.029073128422169 ], [ 7.856728804590716, 5.026389751086185 ], [ 7.852034280557632, 5.0291235642012 ], [ 7.84951187467334, 5.02851600381058 ], [ 7.840183959821957, 5.027292682111636 ], [ 7.833959156589856, 5.033852696844519 ], [ 7.827600098965434, 5.027848363311364 ], [ 7.827497606829127, 5.025842176375363 ], [ 7.826922889679679, 5.019890793125626 ], [ 7.828737306081848, 5.015614629211825 ], [ 7.829098134771129, 5.012986954084738 ], [ 7.826053389152662, 5.007594252173021 ], [ 7.828871366220596, 5.001248133994238 ], [ 7.825603739820792, 4.993752422336456 ], [ 7.828747179738627, 4.986083181993308 ] ] ] } }
]
}
